{
  "type": "FeatureCollection",
  "name": "other",
  "crs": {
    "type": "name",
    "properties": { "name": "urn:ogc:def:crs:OGC:1.3:CRS84" }
  },
  "features": [
    {
      "type": "Feature",
      "properties": {
        "OBJECTID": 17,
        "ID": 17,
        "LOKALITA": "tř. Budovatelů (bl. 369)",
        "V_PROVOZU": 1,
        "SMER": 35,
        "GPS": "50.496665225030675, 13.636343659863481"
      },
      "geometry": {
        "type": "Point",
        "coordinates": [13.636343659863481, 50.496665225030675]
      }
    }
  ]
}
